{"fetched_at":"2026-07-06T18:35:51.125Z","source":"https://celestrak.org/NORAD/elements/gp.php?NAME=RCM&FORMAT=JSON","constellation":"rcm","records":[{"OBJECT_NAME":"RCM-1","OBJECT_ID":"2019-033A","EPOCH":"2026-07-05T02:25:34.177728","CLASSIFICATION_TYPE":"U","MEAN_MOTION":14.92593314,"ECCENTRICITY":0.0001494,"INCLINATION":97.76,"RA_OF_ASC_NODE":193.2939,"ARG_OF_PERICENTER":89.7056,"MEAN_ANOMALY":270.4334,"EPHEMERIS_TYPE":0,"NORAD_CAT_ID":44322,"ELEMENT_SET_NO":999,"REV_AT_EPOCH":38475,"BSTAR":0.00012079,"MEAN_MOTION_DOT":0.00001187,"MEAN_MOTION_DDOT":0},{"OBJECT_NAME":"RCM-3","OBJECT_ID":"2019-033B","EPOCH":"2026-07-06T06:19:14.519136","CLASSIFICATION_TYPE":"U","MEAN_MOTION":14.92591115,"ECCENTRICITY":0.00015203,"INCLINATION":97.76,"RA_OF_ASC_NODE":194.5343,"ARG_OF_PERICENTER":89.0982,"MEAN_ANOMALY":271.0412,"EPHEMERIS_TYPE":0,"NORAD_CAT_ID":44323,"ELEMENT_SET_NO":999,"REV_AT_EPOCH":38494,"BSTAR":-0.000019927295,"MEAN_MOTION_DOT":-0.00000261,"MEAN_MOTION_DDOT":0},{"OBJECT_NAME":"RCM-2","OBJECT_ID":"2019-033C","EPOCH":"2026-07-06T06:51:13.572864","CLASSIFICATION_TYPE":"U","MEAN_MOTION":14.92587724,"ECCENTRICITY":0.00015215,"INCLINATION":97.7606,"RA_OF_ASC_NODE":194.5065,"ARG_OF_PERICENTER":89.3124,"MEAN_ANOMALY":270.827,"EPHEMERIS_TYPE":0,"NORAD_CAT_ID":44324,"ELEMENT_SET_NO":999,"REV_AT_EPOCH":38493,"BSTAR":0.000003714148,"MEAN_MOTION_DOT":-1.8e-7,"MEAN_MOTION_DDOT":0}]}
